#dP2022  5 11  0  0  0.00000000      97 __u+U IGS14 FIT  IAC
## 2209 259200.00000000   900.00000000 59710 0.0000000000000
+  115   C06C07C08C09C10C11C12C13C14C16C19C20C21C22C23C24C25
+        C26C27C28C29C30C32C33C34C35C36C37C38C39C40C41C42C43
+        C44C45C46E02E03E04E05E07E08E09E10E11E12E13E14E15E18
+        E19E21E24E25E26E27E30E31E33E34E36G01G02G03G04G05G06
+        G07G08G09G10G12G13G14G15G16G17G18G19G20G21G22G23G24
+        G25G26G27G28G29G30G31G32J02J03R01R02R03R04R05R07R08
+        R09R11R12R13R14R15R17R18R19R20R21R22R24  0  0  0  0
++         7  7  7  7  7  6  6  7  7  7  5  5  5  6  5  5  5
++         6  6  5  5  5  5  6  5  5  6  6  6  6  6  6  6  6
++         6  6  6  4  4  4  4  4  4  4  4  4  4  4  4  4  4
++         4  4  4  4  4  4  4  4  4  4  4  4  3  3  3  3  3
++         3  3  3  3  3  3  4  4  3  4  3  4  3  3  4  3  3
++         4  3  3  4  3  3  4  4  9  9  6  6  6  6  6  6  6
++         6  6  6  7  8  6  6  6  7  7  6  7  6  0  0  0  0
%c M  cc GPS ccc cccc cccc cccc cccc ccccc ccccc ccccc ccccc
%c cc cc ccc ccc cccc cccc cccc cccc ccccc ccccc ccccc ccccc
%f  1.2500000  1.025000000  0.00000000000  0.000000000000000
%f  0.0000000  0.000000000  0.00000000000  0.000000000000000
%i    0    0    0    0      0      0      0      0         0
%i    0    0    0    0      0      0      0      0         0
/* INFORMATION & ANALYSIS CENTER (IAC)            FINAL DATA
/* S/V CLOCKS ARE ALIGNED TO GNSS TIME                      
/* G:C1WC2W R:C1PC2P E:C1XC5X C:C2IC6I J:C1CC2S             
/* PCV:IGS14_2196 OL/AL:FES2004  NONE     YN ORB:CoN CLK:CoN
*  2022 05 11 17  0  0.00000000
PC06   -798.967137  31759.120847  27852.185612    -35.392539
PC07 -16163.490212  27689.725997 -27461.306669   -153.289353
PC08 -13813.169207  39737.498473   1364.073708    307.452101
PC09   6112.102720  35878.748462  22065.148434   -778.037146
PC10  -7542.840072  28037.978456 -30449.282467    132.739645
PC11   -703.677696 -20463.484349  19030.279910    345.979904
PC12  14313.519377  -6606.846565  23054.189664   -617.660344
PC13  -7758.082024  40312.712787   9092.865708    -35.753318
PC14   8724.027210 -16414.832524 -20767.699298    472.723176
PC16  -3144.154487  29771.341158  29971.618966    130.183675
PC19   2450.009659  15637.053953  23014.619428    870.874515
PC20 -16948.253252  14943.321512  16420.321728   -910.907409
PC21  27409.557720  -5133.124181    536.553718   -272.323193
PC22  21225.598793   7345.081436  16546.781964   -971.174158
PC23 -11763.088580 -13328.945880  21515.386236   -930.110060
PC24  13805.180671 -22981.416131  -7797.727497   -963.122322
PC25    141.728407 -25800.223752  10652.512242   -738.159460
PC26  17639.027476  -8381.767986 -19956.926221    739.302865
PC27 -19599.040185  -1879.612098 -19793.252293    721.605667
PC28 -20666.614073 -17737.244571  -6090.152373     65.564672
PC29  10212.458733  23148.618381 -11789.563110    553.277258
PC30  -7290.723442  15015.210123 -22378.135390    498.332227
PC32 -27390.159172   5362.727343   -520.882116   -963.014538
PC33  -2500.060915 -15639.539414 -22964.515428   -965.786808
PC34   6466.660366 -15738.585106  22098.445601   -405.844870
PC35  21017.962346  17660.606291   5105.197762    269.328240
PC36  -1138.221548  25944.379980 -10188.024210   -964.078794
PC37 -17760.310725   6652.275511  20479.805948   -913.053775
PC38 -17323.569694  37858.064262  -6167.273047    231.413550
PC39  -7451.818544  25674.694770  32678.834589     34.974387
PC40 -22805.081055  21431.909548 -28363.971014    268.204116
PC41 -20950.305670  -7526.155026 -16775.678689   -965.829905
PC42  17838.498541 -14655.342659 -15610.241981   -967.055962
PC43  -9507.704391 -23151.936044  12303.131400   -924.721795
PC44  19849.029123   1369.738986  19566.423585    656.311202
PC45  11823.965201  12984.629869 -21680.609367    754.359039
PC46 -13012.726471  23812.768000   6433.417306   -319.102524
PE02   5258.309333  16884.343109 -23737.649256    298.508463
PE03  17126.072390  17775.060324  16332.096124   -557.198699
PE04 -28279.646547  -8714.481560    795.833022  -1025.709735
PE05  -4310.537470  16548.800999  24169.662393   -182.588306
PE07  22914.365495  -5711.952037 -17826.953629   -667.467815
PE08  28340.072304   8453.910810  -1043.960197   -527.342278
PE09 -22794.499528   5779.775547  17997.033226   -514.733884
PE10 -16306.759059     56.780774 -24714.076332   -512.343832
PE11 -13194.775066  11900.623447 -23691.020527   3700.837402
PE12 -16777.562803 -11151.832122 -21683.881334   4618.887933
PE13  13387.068511 -11137.143243  23932.902750    428.609821
PE14 -23870.508362   6888.511522 -20997.200989  -1840.628447
PE15  16729.065325  11322.734200  21641.166557    746.291497
PE18  15388.545990  -6869.822393  16296.711756  -1460.964316
PE19 -14838.884274 -18169.472932 -18038.574227  -4493.998034
PE21  12446.338631 -23276.056541  13396.836613   -733.584967
PE24 -24280.370508  15687.334916   6300.928109   -609.326321
PE25 -12673.396751  23276.075415 -13174.930924   -573.567733
PE26   1727.415944 -27318.437829  11258.545848  -1132.711525
PE27  23960.707557 -16591.690409  -5201.133674   -296.419703
PE30  20800.511223    830.525487 -21059.122437   -502.116269
PE31 -21272.956269    192.335082  20585.306179   -496.462768
PE33 -10189.975364 -26986.828033  -6604.801252   -456.740310
PE34  10336.720368  26892.564640   6779.846598   -516.535480
PE36  -2206.597810  26907.791745 -12153.558637   -372.194101
PG01  13250.437699  -8555.541813  21003.892991    365.236732
PG02 -13999.214647 -14557.942739 -16518.945942   -653.268692
PG03  22958.383586 -12442.218272   4388.555615   -240.512323
PG04  20665.957614  -2453.868954 -16541.127630   -168.199708
PG05 -20434.023868    478.010664 -17207.012691    -81.474484
PG06  -5788.789569 -25252.836109  -5592.103370    299.477963
PG07   6228.902089 -22740.541022 -11318.417318    321.964395
PG08  24852.286585   4200.471193   8888.288702    -67.590443
PG09  11576.681567 -11273.066689 -21147.361928   -337.510542
PG10  -3728.405255  18339.099914  18876.504924   -410.660657
PG12 -23909.790444   8138.025385   7748.697664   -213.887041
PG13 -23051.712792 -13216.498131   1952.102797    309.754351
PG14   5593.035589 -18755.854176  17911.234918   -107.790097
PG15 -25044.802573  -1071.357085   8826.518657    -62.054878
PG16  17559.763569   5429.923240 -19608.803507   -499.959923
PG17  -5606.986047 -17819.412520  19290.315492    611.387467
PG18  -6878.980412  22471.826640 -12273.399679    172.835854
PG19 -13101.280413 -18615.014438  13595.512778    155.983915
PG20 -13389.386361  -8525.413542 -21267.546323    515.338863
PG21  15951.507581   3033.758480  21760.739865    161.028456
PG22  15190.527931  18464.258776  12170.458450    257.474379
PG23 -13961.505653  19719.854015  10904.580889    -21.191763
PG24 -15082.723664   4333.505385  21109.040159    242.870428
PG25 -18946.054938  17790.171798  -5001.854714    323.394987
PG26   8378.389220  13401.596586 -21418.305314    204.913630
PG27  23269.950565  12977.738614  -2872.271666    201.105601
PG28  -3059.500204 -15552.227357  21855.986776    359.657845
PG29 -12610.666549   9403.143727 -21465.141425   -512.554521
PG30    245.228178 -26260.794271  -2838.854622   -527.489218
PG31   7360.848591  23938.351914  -8233.186529   -177.186608
PG32   9014.871550  17831.421554  17736.003494   -124.785706
PJ02 -34531.994707  24264.089589   3063.900233     -0.099820
PJ03 -20428.948434  22045.803010 -24992.103249     -2.084920
PR01 -23004.897971  -4093.671520 -10244.943606      8.612103
PR02 -23241.492137   4574.089732   9434.892072    518.054760
PR03  -9233.319418  10308.140064  21465.459090     56.468156
PR04   9572.129962   9970.643566  21473.687477    141.015434
PR05  23215.636187   4385.404283   9659.009776     92.703900
PR07   8589.241500 -10365.334971 -21631.548798     34.950022
PR08  -9751.128117  -9982.846967 -21284.296450    -65.070282
PR09  15558.687014 -14679.311727 -13820.926471     54.502775
PR11    467.285451 -18440.285584  17620.679797     39.254438
PR12 -11120.642008  -2441.787780  22849.010973     18.393358
PR13 -15487.011337  13724.016583  14900.352861    -22.156518
PR14 -10898.960895  22881.340048  -2959.200967     25.772572
PR15    -53.308654  17969.137040 -18087.541890     96.198427
PR17    472.319967  17453.093365 -18579.540832    525.159955
PR18  10903.655797  22696.922009  -4250.915439    116.507989
PR19  15045.863524  17209.172216  11315.530359   -188.642435
PR20  10968.371533  -1148.081794  23007.113060    -70.386737
PR21  -1495.851154 -18373.891980  17635.261723   -300.424147
PR22 -11141.275129 -22632.363118   3385.079108   -182.518242
PR24 -10983.748731   2374.828087 -22889.299725     93.250008
EOF
